{"type": "FeatureCollection", "features": [ {"type": "Feature", "properties": {"norad_id": 38146, "name": "FENGYUN 1C DEB", "group": "fengyun-1c-debris", "lat": 19.646890734599, "lon": 73.96429320920562, "alt_km": 614.2767125910223, "timestamp": "2025-12-21T14:40:48.206487+00:00", "meta": {"OBJECT_NAME": "FENGYUN 1C DEB", "OBJECT_ID": "1999-025EQT", "EPOCH": "2025-12-18T00:08:51.919008", "MEAN_MOTION": 14.59286747, "ECCENTRICITY": 0.02022294, "INCLINATION": 99.4834, "RA_OF_ASC_NODE": 73.268, "ARG_OF_PERICENTER": 87.2264, "MEAN_ANOMALY": 84.0387, "EPHEMERIS_TYPE": 0, "CLASSIFICATION_TYPE": "U", "NORAD_CAT_ID": 38146, "ELEMENT_SET_NO": 999, "REV_AT_EPOCH": 31956, "BSTAR": 0.00063226228, "MEAN_MOTION_DOT": 3.907e-05, "MEAN_MOTION_DDOT": 0}, "tle": {"line1": "1 38146U 99025EQT 25352.00615647  .00003907  00000+0  63226-3 0  9993", "line2": "2 38146  99.4834  73.2680 0202229  87.2264  84.0387 14.59286747319560"}}, "geometry": {"type": "Point", "coordinates": [73.96429320920562, 19.646890734599]}}, {"type": "Feature", "properties": {"norad_id": 38147, "name": "FENGYUN 1C DEB", "group": "fengyun-1c-debris", "lat": 54.381851530501415, "lon": -158.27417710309334, "alt_km": 839.1478337183999, "timestamp": "2025-12-21T14:40:48.206497+00:00", "meta": {"OBJECT_NAME": "FENGYUN 1C DEB", "OBJECT_ID": "1999-025EQU", "EPOCH": "2025-12-21T07:20:40.413984", "MEAN_MOTION": 14.23465696, "ECCENTRICITY": 0.00496606, "INCLINATION": 98.5577, "RA_OF_ASC_NODE": 9.2955, "ARG_OF_PERICENTER": 274.8439, "MEAN_ANOMALY": 84.7071, "EPHEMERIS_TYPE": 0, "CLASSIFICATION_TYPE": "U", "NORAD_CAT_ID": 38147, "ELEMENT_SET_NO": 999, "REV_AT_EPOCH": 60509, "BSTAR": 0.00046715446, "MEAN_MOTION_DOT": 1.032e-05, "MEAN_MOTION_DDOT": 0}, "tle": {"line1": "1 38147U 99025EQU 25355.30602331  .00001032  00000+0  46715-3 0  9997", "line2": "2 38147  98.5577   9.2955 0049660 274.8439  84.7071 14.23465696605091"}}, "geometry": {"type": "Point", "coordinates": [-158.27417710309334, 54.381851530501415]}}, {"type": "Feature", "properties": {"norad_id": 38149, "name": "FENGYUN 1C DEB", "group": "fengyun-1c-debris", "lat": -15.001355847555974, "lon": -10.30621428526602, "alt_km": 858.3514759181498, "timestamp": "2025-12-21T14:40:48.206507+00:00", "meta": {"OBJECT_NAME": "FENGYUN 1C DEB", "OBJECT_ID": "1999-025EQW", "EPOCH": "2025-12-07T17:18:01.960128", "MEAN_MOTION": 14.25910713, "ECCENTRICITY": 0.00777044, "INCLINATION": 98.3566, "RA_OF_ASC_NODE": 334.1881, "ARG_OF_PERICENTER": 175.9559, "MEAN_ANOMALY": 184.2267, "EPHEMERIS_TYPE": 0, "CLASSIFICATION_TYPE": "U", "NORAD_CAT_ID": 38149, "ELEMENT_SET_NO": 999, "REV_AT_EPOCH": 70416, "BSTAR": 0.00036135678, "MEAN_MOTION_DOT": 8.47e-06, "MEAN_MOTION_DDOT": 0}, "tle": {"line1": "1 38149U 99025EQW 25341.72085602  .00000847  00000+0  36136-3 0  9995", "line2": "2 38149  98.3566 334.1881 0077704 175.9559 184.2267 14.25910713704169"}}, "geometry": {"type": "Point", "coordinates": [-10.30621428526602, -15.001355847555974]}}, {"type": "Feature", "properties": {"norad_id": 38155, "name": "FENGYUN 1C DEB", "group": "fengyun-1c-debris", "lat": -74.7271197924208, "lon": 46.65446218993997, "alt_km": 879.6235534734697, "timestamp": "2025-12-21T14:40:48.206517+00:00", "meta": {"OBJECT_NAME": "FENGYUN 1C DEB", "OBJECT_ID": "1999-025ERC", "EPOCH": "2025-12-18T23:08:16.383264", "MEAN_MOTION": 14.25112386, "ECCENTRICITY": 0.00979258, "INCLINATION": 98.4473, "RA_OF_ASC_NODE": 257.0769, "ARG_OF_PERICENTER": 108.7402, "MEAN_ANOMALY": 252.4435, "EPHEMERIS_TYPE": 0, "CLASSIFICATION_TYPE": "U", "NORAD_CAT_ID": 38155, "ELEMENT_SET_NO": 999, "REV_AT_EPOCH": 63864, "BSTAR": 0.0016814228, "MEAN_MOTION_DOT": 4.107e-05, "MEAN_MOTION_DDOT": 0}, "tle": {"line1": "1 38155U 99025ERC 25352.96407851  .00004107  00000+0  16814-2 0  9997", "line2": "2 38155  98.4473 257.0769 0097925 108.7402 252.4435 14.25112386638644"}}, "geometry": {"type": "Point", "coordinates": [46.65446218993997, -74.7271197924208]}}, {"type": "Feature", "properties": {"norad_id": 38157, "name": "FENGYUN 1C DEB", "group": "fengyun-1c-debris", "lat": -24.668624076434153, "lon": 78.92843274847792, "alt_km": 905.2784092927841, "timestamp": "2025-12-21T14:40:48.206527+00:00", "meta": {"OBJECT_NAME": "FENGYUN 1C DEB", "OBJECT_ID": "1999-025ERE", "EPOCH": "2025-12-18T23:15:19.062432", "MEAN_MOTION": 14.21759135, "ECCENTRICITY": 0.02742522, "INCLINATION": 99.6569, "RA_OF_ASC_NODE": 260.5201, "ARG_OF_PERICENTER": 96.8894, "MEAN_ANOMALY": 266.356, "EPHEMERIS_TYPE": 0, "CLASSIFICATION_TYPE": "U", "NORAD_CAT_ID": 38157, "ELEMENT_SET_NO": 999, "REV_AT_EPOCH": 76336, "BSTAR": 0.00050562821, "MEAN_MOTION_DOT": 1.574e-05, "MEAN_MOTION_DDOT": 0}, "tle": {"line1": "1 38157U 99025ERE 25352.96897063  .00001574  00000+0  50563-3 0  9992", "line2": "2 38157  99.6569 260.5201 0274252  96.8894 266.3560 14.21759135763363"}}, "geometry": {"type": "Point", "coordinates": [78.92843274847792, -24.668624076434153]}}, {"type": "Feature", "properties": {"norad_id": 38159, "name": "FENGYUN 1C DEB", "group": "fengyun-1c-debris", "lat": 46.99975319156699, "lon": -122.66137589684708, "alt_km": 878.2820969111444, "timestamp": "2025-12-21T14:40:48.206537+00:00", "meta": {"OBJECT_NAME": "FENGYUN 1C DEB", "OBJECT_ID": "1999-025ERG", "EPOCH": "2025-12-04T22:05:20.152032", "MEAN_MOTION": 14.03448484, "ECCENTRICITY": 0.005704, "INCLINATION": 99.3156, "RA_OF_ASC_NODE": 230.39, "ARG_OF_PERICENTER": 2.347, "MEAN_ANOMALY": 357.7952, "EPHEMERIS_TYPE": 0, "CLASSIFICATION_TYPE": "U", "NORAD_CAT_ID": 38159, "ELEMENT_SET_NO": 999, "REV_AT_EPOCH": 83002, "BSTAR": 0.0010527, "MEAN_MOTION_DOT": 1.625e-05, "MEAN_MOTION_DDOT": 0}, "tle": {"line1": "1 38159U 99025ERG 25338.92037213  .00001625  00000+0  10527-2 0  9999", "line2": "2 38159  99.3156 230.3900 0057040   2.3470 357.7952 14.03448484830021"}}, "geometry": {"type": "Point", "coordinates": [-122.66137589684708, 46.99975319156699]}}, {"type": "Feature", "properties": {"norad_id": 38163, "name": "FENGYUN 1C DEB", "group": "fengyun-1c-debris", "lat": 44.565676636448444, "lon": 23.096608825938986, "alt_km": 924.2493903168424, "timestamp": "2025-12-21T14:40:48.206547+00:00", "meta": {"OBJECT_NAME": "FENGYUN 1C DEB", "OBJECT_ID": "1999-025ERL", "EPOCH": "2025-12-18T21:33:29.990592", "MEAN_MOTION": 14.05931251, "ECCENTRICITY": 0.00762702, "INCLINATION": 99.1281, "RA_OF_ASC_NODE": 29.4748, "ARG_OF_PERICENTER": 225.191, "MEAN_ANOMALY": 134.304, "EPHEMERIS_TYPE": 0, "CLASSIFICATION_TYPE": "U", "NORAD_CAT_ID": 38163, "ELEMENT_SET_NO": 999, "REV_AT_EPOCH": 24628, "BSTAR": 0.00077081788, "MEAN_MOTION_DOT": 1.25e-05, "MEAN_MOTION_DDOT": 0}, "tle": {"line1": "1 38163U 99025ERL 25352.89826378  .00001250  00000+0  77082-3 0  9998", "line2": "2 38163  99.1281  29.4748 0076270 225.1910 134.3040 14.05931251246287"}}, "geometry": {"type": "Point", "coordinates": [23.096608825938986, 44.565676636448444]}}, {"type": "Feature", "properties": {"norad_id": 38166, "name": "FENGYUN 1C DEB", "group": "fengyun-1c-debris", "lat": 5.008978303454522, "lon": 98.27889453999127, "alt_km": 754.2479704484085, "timestamp": "2025-12-21T14:40:48.206558+00:00", "meta": {"OBJECT_NAME": "FENGYUN 1C DEB", "OBJECT_ID": "1999-025ERP", "EPOCH": "2025-12-20T00:03:42.377184", "MEAN_MOTION": 14.31032215, "ECCENTRICITY": 0.00518518, "INCLINATION": 99.0785, "RA_OF_ASC_NODE": 97.4018, "ARG_OF_PERICENTER": 22.7918, "MEAN_ANOMALY": 337.5549, "EPHEMERIS_TYPE": 0, "CLASSIFICATION_TYPE": "U", "NORAD_CAT_ID": 38166, "ELEMENT_SET_NO": 999, "REV_AT_EPOCH": 63876, "BSTAR": 0.0016550954, "MEAN_MOTION_DOT": 4.376e-05, "MEAN_MOTION_DDOT": 0}, "tle": {"line1": "1 38166U 99025ERP 25354.00257381  .00004376  00000+0  16551-2 0  9993", "line2": "2 38166  99.0785  97.4018 0051851  22.7918 337.5549 14.31032215638760"}}, "geometry": {"type": "Point", "coordinates": [98.27889453999127, 5.008978303454522]}}, {"type": "Feature", "properties": {"norad_id": 38169, "name": "FENGYUN 1C DEB", "group": "fengyun-1c-debris", "lat": -3.2281868430230465, "lon": -28.753803947569907, "alt_km": 642.908888652345, "timestamp": "2025-12-21T14:40:48.206568+00:00", "meta": {"OBJECT_NAME": "FENGYUN 1C DEB", "OBJECT_ID": "1999-025ERS", "EPOCH": "2025-12-17T04:37:40.598400", "MEAN_MOTION": 14.71570377, "ECCENTRICITY": 0.00320132, "INCLINATION": 98.9779, "RA_OF_ASC_NODE": 325.865, "ARG_OF_PERICENTER": 54.7995, "MEAN_ANOMALY": 305.6199, "EPHEMERIS_TYPE": 0, "CLASSIFICATION_TYPE": "U", "NORAD_CAT_ID": 38169, "ELEMENT_SET_NO": 999, "REV_AT_EPOCH": 61334, "BSTAR": 0.002130707, "MEAN_MOTION_DOT": 0.00013312, "MEAN_MOTION_DDOT": 0}, "tle": {"line1": "1 38169U 99025ERS 25351.19283100  .00013312  00000+0  21307-2 0  9996", "line2": "2 38169  98.9779 325.8650 0032013  54.7995 305.6199 14.71570377613347"}}, "geometry": {"type": "Point", "coordinates": [-28.753803947569907, -3.2281868430230465]}}, {"type": "Feature", "properties": {"norad_id": 38173, "name": "FENGYUN 1C DEB", "group": "fengyun-1c-debris", "lat": -64.26597715521771, "lon": -84.56116932253337, "alt_km": 877.7241116040614, "timestamp": "2025-12-21T14:40:48.206578+00:00", "meta": {"OBJECT_NAME": "FENGYUN 1C DEB", "OBJECT_ID": "1999-025ERW", "EPOCH": "2025-12-16T11:20:48.017472", "MEAN_MOTION": 14.37192423, "ECCENTRICITY": 0.01631615, "INCLINATION": 99.0007, "RA_OF_ASC_NODE": 250.8645, "ARG_OF_PERICENTER": 101.6732, "MEAN_ANOMALY": 260.2814, "EPHEMERIS_TYPE": 0, "CLASSIFICATION_TYPE": "U", "NORAD_CAT_ID": 38173, "ELEMENT_SET_NO": 999, "REV_AT_EPOCH": 60697, "BSTAR": 0.00064310917, "MEAN_MOTION_DOT": 2.179e-05, "MEAN_MOTION_DDOT": 0}, "tle": {"line1": "1 38173U 99025ERW 25350.47277798  .00002179  00000+0  64311-3 0  9999", "line2": "2 38173  99.0007 250.8645 0163161 101.6732 260.2814 14.37192423606974"}}, "geometry": {"type": "Point", "coordinates": [-84.56116932253337, -64.26597715521771]}}]}